NORAD_CAT_ID,OBJECT_NAME,OBJECT_TYPE,EPOCH,MEAN_MOTION,ECCENTRICITY,INCLINATION,RA_OF_ASC_NODE,ARG_OF_PERICENTER,MEAN_ANOMALY,BSTAR,MEAN_MOTION_DOT,MEAN_MOTION_DDOT,TLE_LINE0,TLE_LINE1,TLE_LINE2,SEMIMAJOR_AXIS,PERIOD,APOGEE,PERIGEE,DECAYED
53858.0,STARLINK-4798,PAYLOAD,2024-08-05 15:53:05,15.08825733,0.0001764,53.2196,12.6558,109.746,250.3723,-0.0002096,-3.621e-05,0.0,0 STARLINK-4798,1 53858U 22114AS  24218.66187069 -.00003621  00000-0 -20960-3 0  9993,2 53858  53.2196  12.6558 0001764 109.7460 250.3723 15.08825733104851,6917.924,95.438,541.009,538.569,0.0
53858.0,STARLINK-4798,PAYLOAD,2024-08-06 03:00:47,15.08836345,0.0001564,53.22,10.5752,106.9553,253.1611,-5.8115e-05,-1.213e-05,0.0,0 STARLINK-4798,1 53858U 22114AS  24219.12555254 -.00001213  00000-0 -58115-4 0  9999,2 53858  53.2200  10.5752 0001564 106.9553 253.1611 15.08836345104926,6917.892,95.438,540.839,538.675,0.0
53858.0,STARLINK-4798,PAYLOAD,2024-08-06 14:08:29,15.0884455,0.0001607,53.2194,8.4936,104.2574,255.8597,0.00015499,2.18e-05,0.0,0 STARLINK-4798,1 53858U 22114AS  24219.58922651  .00002180  00000-0  15499-3 0  9997,2 53858  53.2194   8.4936 0001607 104.2574 255.8597 15.08844550105537,6917.866,95.437,540.843,538.62,0.0
53858.0,STARLINK-4798,PAYLOAD,2024-08-06 18:54:38,15.08850256,0.0001506,53.219,7.5993,102.2252,257.8909,0.00039622,6.025e-05,0.0,0 STARLINK-4798,1 53858U 22114AS  24219.78794590  .00006025  00000-0  39622-3 0  9994,2 53858  53.2190   7.5993 0001506 102.2252 257.8909 15.08850256105028,6917.849,95.437,540.756,538.672,0.0
53858.0,STARLINK-4798,PAYLOAD,2024-08-07 17:10:02,15.0885582,0.000142,53.2176,3.4362,74.0026,286.1123,0.00044939,6.874e-05,0.0,0 STARLINK-4798,1 53858U 22114AS  24220.71530540  .00006874  00000-0  44939-3 0  9991,2 53858  53.2176   3.4362 0001420  74.0026 286.1123 15.08855820105167,6917.832,95.437,540.679,538.715,0.0
53858.0,STARLINK-4798,PAYLOAD,2024-08-08 13:50:03,15.08850326,0.000135,53.2186,359.5708,81.0629,279.0516,0.00090528,0.00014153,0.0,0 STARLINK-4798,1 53858U 22114AS  24221.57642371  .00014153  00000-0  90528-3 0  9996,2 53858  53.2186 359.5708 0001350  81.0629 279.0516 15.08850326105833,6917.849,95.437,540.648,538.78,0.0
53858.0,STARLINK-4798,PAYLOAD,2024-08-08 17:00:49,15.08862526,0.0001341,53.2176,358.9747,85.1945,274.92,0.0015361,0.00024259,0.0,0 STARLINK-4798,1 53858U 22114AS  24221.70890149  .00024259  00000-0  15361-2 0  9998,2 53858  53.2176 358.9747 0001341  85.1945 274.9200 15.08862526105316,6917.812,95.436,540.604,538.749,0.0
53858.0,STARLINK-4798,PAYLOAD,2024-08-09 02:33:07,15.08857633,0.0001331,53.2172,357.1902,93.9623,266.1521,0.00084214,0.00013147,0.0,0 STARLINK-4798,1 53858U 22114AS  24222.10634087  .00013147  00000-0  84214-3 0  9998,2 53858  53.2172 357.1902 0001331  93.9623 266.1521 15.08857633105373,6917.826,95.436,540.612,538.771,0.0
53858.0,STARLINK-4798,PAYLOAD,2024-08-09 08:54:40,15.08845352,0.0001535,53.2156,356.0054,83.5271,276.5896,0.00039862,6.063e-05,0.0,0 STARLINK-4798,1 53858U 22114AS  24222.37130279  .00006063  00000-0  39862-3 0  9999,2 53858  53.2156 356.0054 0001535  83.5271 276.5896 15.08845352105411,6917.864,95.437,540.791,538.667,0.0
53858.0,STARLINK-4798,PAYLOAD,2024-08-09 13:40:49,15.08845002,0.000188,53.2172,355.1093,91.768,268.3528,0.00044129,6.743e-05,0.0,0 STARLINK-4798,1 53858U 22114AS  24222.57002274  .00006743  00000-0  44129-3 0  9991,2 53858  53.2172 355.1093 0001880  91.7680 268.3528 15.08845002105985,6917.865,95.437,541.031,538.43,0.0
53858.0,STARLINK-4798,PAYLOAD,2024-08-09 18:26:58,15.08856805,0.000143,53.218,354.2132,103.3944,256.7207,0.00066788,0.00010362,0.0,0 STARLINK-4798,1 53858U 22114AS  24222.76873714  .00010362  00000-0  66788-3 0  9994,2 53858  53.2180 354.2132 0001430 103.3944 256.7207 15.08856805106015,6917.829,95.436,540.683,538.705,0.0
53858.0,STARLINK-4798,PAYLOAD,2024-08-10 13:31:36,15.08848313,0.0001366,53.2178,350.646,93.0615,267.0534,0.00048205,7.394e-05,0.0,0 STARLINK-4798,1 53858U 22114AS  24223.56362088  .00007394  00000-0  48205-3 0  9995,2 53858  53.2178 350.6460 0001366  93.0615 267.0534 15.08848313105599,6917.855,95.437,540.665,538.775,0.0
53858.0,STARLINK-4798,PAYLOAD,2024-08-10 15:06:59,15.08856773,0.0001532,53.2196,350.349,74.1623,285.9538,0.00088466,0.00013826,0.0,0 STARLINK-4798,1 53858U 22114AS  24223.62986047  .00013826  00000-0  88466-3 0  9999,2 53858  53.2196 350.3490 0001532  74.1623 285.9538 15.08856773106147,6917.829,95.436,540.754,538.634,0.0
53858.0,STARLINK-4798,PAYLOAD,2024-08-11 18:08:33,15.0885781,0.0001478,53.2183,345.2943,80.9673,279.1487,0.0016164,0.00025543,0.0,0 STARLINK-4798,1 53858U 22114AS  24224.75594608  .00025543  00000-0  16164-2 0  9996,2 53858  53.2183 345.2943 0001478  80.9673 279.1487 15.08857810105777,6917.826,95.436,540.713,538.668,0.0
53858.0,STARLINK-4798,PAYLOAD,2024-08-12 08:27:01,15.08853768,0.000268,53.2179,342.6213,91.5879,268.542,0.0011089,0.00017411,0.0,0 STARLINK-4798,1 53858U 22114AS  24225.35210645  .00017411  00000-0  11089-2 0  9995,2 53858  53.2179 342.6213 0002680  91.5879 268.5420 15.08853768105862,6917.838,95.437,541.557,537.849,0.0
53858.0,STARLINK-4798,PAYLOAD,2024-08-12 14:48:33,15.08913662,4.72e-05,53.2182,341.4293,21.1687,338.9325,0.0027652,0.00044085,0.0,0 STARLINK-4798,1 53858U 22114AS  24225.61705327  .00044085  00000-0  27652-2 0  9990,2 53858  53.2182 341.4293 0000472  21.1687 338.9325 15.08913662106445,6917.655,95.433,539.847,539.194,0.0
53858.0,STARLINK-4798,PAYLOAD,2024-08-12 17:59:18,15.08930946,0.0001373,53.218,340.8348,87.4524,272.6626,0.0035707,0.00057143,0.0,0 STARLINK-4798,1 53858U 22114AS  24225.74951942  .00057143  00000-0  35707-2 0  9999,2 53858  53.2180 340.8348 0001373  87.4524 272.6626 15.08930946105927,6917.602,95.432,540.417,538.518,0.0
53858.0,STARLINK-4798,PAYLOAD,2024-08-13 00:20:54,15.08797235,0.0006406,53.2187,339.6431,85.6306,274.5418,-0.00027064,-4.592e-05,0.0,0 STARLINK-4798,1 53858U 22114AS  24226.01451737 -.00004592  00000-0 -27064-3 0  9997,2 53858  53.2187 339.6431 0006406  85.6306 274.5418 15.08797235105969,6918.011,95.44,544.308,535.444,0.0
53858.0,STARLINK-4798,PAYLOAD,2024-08-13 08:17:49,15.08783803,0.0001968,53.2198,338.1607,111.024,249.0963,-0.0019057,-0.00030444,0.0,0 STARLINK-4798,1 53858U 22114AS  24226.34571516 -.00030444  00000-0 -19057-2 0  9998,2 53858  53.2198 338.1607 0001968 111.0240 249.0963 15.08783803106014,6918.052,95.441,541.279,538.556,0.0
53858.0,STARLINK-4798,PAYLOAD,2024-08-13 14:39:23,15.08783687,0.000175,53.2193,336.9724,117.3874,242.7296,-0.00090457,-0.00014633,0.0,0 STARLINK-4798,1 53858U 22114AS  24226.61068514 -.00014633  00000-0 -90457-3 0  9993,2 53858  53.2193 336.9724 0001750 117.3874 242.7296 15.08783687106598,6918.053,95.441,541.128,538.707,0.0
53858.0,STARLINK-4798,PAYLOAD,2024-08-14 00:11:43,15.08788139,0.0002886,53.2199,335.185,98.1572,261.9747,0.0010147,0.00015875,0.0,0 STARLINK-4798,1 53858U 22114AS  24227.00814440  .00015875  00000-0  10147-2 0  9998,2 53858  53.2199 335.1850 0002886  98.1572 261.9747 15.08788139106116,6918.039,95.441,541.9,537.907,0.0
53858.0,STARLINK-4798,PAYLOAD,2024-08-14 12:54:47,15.08881202,6.54e-05,53.2158,332.8056,109.6943,250.412,0.0018805,0.00029801,0.0,0 STARLINK-4798,1 53858U 22114AS  24227.53804660  .00029801  00000-0  18805-2 0  9992,2 53858  53.2158 332.8056 0000654 109.6943 250.4120 15.08881202106195,6917.754,95.435,540.072,539.167,0.0
53858.0,STARLINK-4798,PAYLOAD,2024-08-14 14:30:10,15.08894859,8.56e-05,53.2164,332.5083,92.4432,267.6658,0.0030353,0.00048424,0.0,0 STARLINK-4798,1 53858U 22114AS  24227.60428580  .00048424  00000-0  30353-2 0  9997,2 53858  53.2164 332.5083 0000856  92.4432 267.6658 15.08894859106744,6917.713,95.434,540.17,538.986,0.0
53858.0,STARLINK-4798,PAYLOAD,2024-08-15 00:02:28,15.08873647,0.000113,53.2164,330.7235,109.0812,251.0303,0.0026676,0.00042462,0.0,0 STARLINK-4798,1 53858U 22114AS  24228.00171982  .00042462  00000-0  26676-2 0  9992,2 53858  53.2164 330.7235 0001130 109.0812 251.0303 15.08873647106269,6917.778,95.435,540.424,538.861,0.0
53858.0,STARLINK-4798,PAYLOAD,2024-08-15 23:53:15,15.08867956,6.28e-05,53.2159,326.2589,200.5452,159.5515,0.0019487,0.00030886,0.0,0 STARLINK-4798,1 53858U 22114AS  24228.99531253  .00030886  00000-0  19487-2 0  9990,2 53858  53.2159 326.2589 0000628 200.5452 159.5515 15.08867956106413,6917.795,95.436,540.094,539.226,0.0
53858.0,STARLINK-4798,PAYLOAD,2024-08-17 06:05:35,15.08866388,9.23e-05,53.2161,320.6143,105.3665,254.743,0.0016332,0.00025819,0.0,0 STARLINK-4798,1 53858U 22114AS  24230.25388209  .00025819  00000-0  16332-2 0  9999,2 53858  53.2161 320.6143 0000923 105.3665 254.7430 15.08866388106609,6917.8,95.436,540.303,539.026,0.0
53858.0,STARLINK-4798,PAYLOAD,2024-08-18 10:42:31,15.08866769,0.0001206,53.2173,315.2614,113.9344,246.1774,0.0012702,0.0002,0.0,0 STARLINK-4798,1 53858U 22114AS  24231.44619727  .00020000  00000-0  12702-2 0  9997,2 53858  53.2173 315.2614 0001206 113.9344 246.1774 15.08866769106787,6917.799,95.436,540.498,538.829,0.0
53858.0,STARLINK-4798,PAYLOAD,2024-08-18 15:28:40,15.08870626,0.0001119,53.2172,314.3709,103.3075,256.8042,0.0010691,0.00016782,0.0,0 STARLINK-4798,1 53858U 22114AS  24231.64491394  .00016782  00000-0  10691-2 0  9994,2 53858  53.2172 314.3709 0001119 103.3075 256.8042 15.08870626107355,6917.787,95.436,540.426,538.878,0.0
53858.0,STARLINK-4798,PAYLOAD,2024-08-19 05:47:09,15.08844688,0.0001584,53.2179,311.6932,102.8867,257.2303,0.00019284,2.783e-05,0.0,0 STARLINK-4798,1 53858U 22114AS  24232.24107848  .00002783  00000-0  19284-3 0  9993,2 53858  53.2179 311.6932 0001584 102.8867 257.2303 15.08844688106903,6917.866,95.437,540.827,538.635,0.0
53858.0,STARLINK-4798,PAYLOAD,2024-08-19 12:08:41,15.08837239,0.000116,53.218,310.5055,80.7819,279.3305,0.00011795,1.59e-05,0.0,0 STARLINK-4798,1 53858U 22114AS  24232.50604089  .00001590  00000-0  11795-3 0  9995,2 53858  53.2180 310.5055 0001160  80.7819 279.3305 15.08837239107485,6917.889,95.438,540.556,538.951,0.0
